OBJECT_NAME,OBJECT_ID,EPOCH,MEAN_MOTION,ECCENTRICITY,INCLINATION,RA_OF_ASC_NODE,ARG_OF_PERICENTER,MEAN_ANOMALY,EPHEMERIS_TYPE,CLASSIFICATION_TYPE,NORAD_CAT_ID,ELEMENT_SET_NO,REV_AT_EPOCH,BSTAR,MEAN_MOTION_DOT,MEAN_MOTION_DDOT
FENGYUN 3D,2017-072A,2026-07-08T23:52:05.726208,14.19743467,.00018473,99.0140,164.8120,26.7827,333.3444,0,U,43010,999,44808,.33665814E-4,.25E-6,0
NOAA 20 (JPSS-1),2017-073A,2026-07-08T22:08:29.971104,14.19515668,.00011434,98.7773,129.1924,129.9157,230.2119,0,U,43013,999,44755,.36123917E-4,.32E-6,0
GOES 17,2018-022A,2026-07-08T20:07:02.798976,1.00271413,.00005927,0.9892,85.3594,68.9835,344.7109,0,U,43226,999,3064,0,-.169E-5,0
SENTINEL-3B,2018-039A,2026-07-08T18:57:09.730080,14.26740836,.00010005,98.6239,257.0111,119.7937,240.3343,0,U,43437,999,42720,.38919138E-4,.51E-6,0
FENGYUN 2H,2018-050A,2026-07-09T00:20:28.735008,1.00267869,.0002223,3.0842,78.8189,130.6757,161.8051,0,U,43491,999,2965,0,-.116E-5,0
METOP-C,2018-087A,2026-07-08T21:18:51.623136,14.21517867,.0002213,98.6633,249.0939,101.8123,258.3302,0,U,43689,999,39791,.43308064E-4,.51E-6,0
GEO-KOMPSAT-2A,2018-100A,2026-07-08T21:09:07.107264,1.00270367,.00022631,0.0273,144.8791,315.9195,271.5691,0,U,43823,999,2784,0,-.33E-5,0
METEOR-M2 2,2019-038A,2026-07-08T22:48:59.753376,14.24371366,.00010836,98.9161,177.5581,15.5468,344.5743,0,U,44387,999,36439,-.1329904E-5,-.49E-6,0
ARKTIKA-M 1,2021-016A,2026-07-07T10:17:34.884672,2.00614486,.72950864,63.2524,54.6812,270.0380,14.5466,0,U,47719,999,3919,0,-.257E-5,0
FENGYUN 3E,2021-062A,2026-07-08T23:25:23.285280,14.19906245,.00024833,98.7504,193.1409,50.1782,309.9612,0,U,49008,999,25967,.9467847E-5,-.24E-6,0
GOES 18,2022-021A,2026-07-08T16:28:12.419040,1.00271752,.0000564,0.0126,261.0292,278.4655,217.1840,0,U,51850,999,680,0,.111E-5,0
NOAA 21 (JPSS-2),2022-150A,2026-07-08T21:13:39.319968,14.19540407,.00026665,98.7061,128.3092,115.5777,244.5675,0,U,54234,999,18962,.29902956E-4,.2E-6,0
METEOSAT-12 (MTG-I1),2022-170C,2026-07-08T20:32:31.296192,1.00266696,.00039045,0.7182,18.5443,82.7457,133.4200,0,U,54743,999,1319,0,.6E-7,0
TIANMU-1 03,2023-039A,2026-07-08T21:43:00.032736,15.47917430,.00031046,97.5245,4.7350,42.6456,317.5034,0,U,55973,999,18419,.21943831E-3,.11342E-3,0
TIANMU-1 04,2023-039B,2026-07-08T22:48:37.088064,15.48536830,.00036159,97.5178,3.9383,35.4202,324.7288,0,U,55974,999,18421,.21374043E-3,.11287E-3,0
TIANMU-1 05,2023-039C,2026-07-08T22:49:55.549632,15.47841639,.00034654,97.5224,4.3906,62.4491,297.7110,0,U,55975,999,18418,.22514281E-3,.1161E-3,0
TIANMU-1 06,2023-039D,2026-07-08T22:55:29.331840,15.48434977,.00036182,97.5231,5.0524,55.1632,304.9958,0,U,55976,999,18421,.21594437E-3,.11364E-3,0
FENGYUN 3G,2023-055A,2026-07-08T17:22:47.811936,15.53588809,.00071912,49.9917,234.9712,27.0742,333.0600,0,U,56232,999,18335,.25826733E-3,.16364E-3,0
METEOR-M2 3,2023-091A,2026-07-08T22:48:02.675808,14.24048564,.00051242,98.6071,244.4818,104.2846,255.8903,0,U,57166,999,15761,.5426768E-5,-.31E-6,0
TIANMU-1 07,2023-101A,2026-07-08T22:41:13.939872,15.30066302,.00040859,97.2584,240.1155,77.4136,282.7562,0,U,57399,999,16497,.14044742E-3,.4013E-4,0
TIANMU-1 08,2023-101B,2026-07-08T23:27:17.144064,15.30070888,.0005109,97.2573,239.9142,62.3660,297.8099,0,U,57400,999,16497,.13987608E-3,.3997E-4,0
TIANMU-1 09,2023-101C,2026-07-08T23:02:41.722368,15.30109814,.0004694,97.2531,239.3022,78.7623,281.4145,0,U,57401,999,16497,.14128106E-3,.4043E-4,0
TIANMU-1 10,2023-101D,2026-07-08T22:16:40.255680,15.30082788,.00060721,97.2610,240.3437,70.7346,289.4551,0,U,57402,999,16496,.14280592E-3,.4085E-4,0
FENGYUN 3F,2023-111A,2026-07-08T23:01:28.731648,14.19942753,.00013993,98.6828,259.5616,79.1372,280.9962,0,U,57490,999,15195,.22987606E-4,.5E-7,0
ARKTIKA-M 2,2023-198A,2026-07-08T04:42:49.048128,2.00608968,.69084583,63.2191,152.0158,267.3598,18.7565,0,U,58584,999,1874,0,.204E-5,0
TIANMU-1 11,2023-205A,2026-07-09T00:06:33.316128,15.27222295,.00068102,97.3447,211.2209,290.1989,69.8517,0,U,58645,999,14085,.13515271E-3,.3534E-4,0
TIANMU-1 12,2023-205B,2026-07-08T23:25:49.212192,15.27052173,.00055036,97.3436,210.9425,263.4297,96.6316,0,U,58646,999,14083,.13445917E-3,.3496E-4,0
TIANMU-1 13,2023-205C,2026-07-09T00:13:55.998624,15.27045019,.00052403,97.3463,211.2532,239.2208,120.8515,0,U,58647,999,14083,.13895759E-3,.3615E-4,0
TIANMU-1 14,2023-205D,2026-07-08T23:51:42.871680,15.27089012,.000594,97.3399,210.4027,247.3632,112.6979,0,U,58648,999,14083,.13641171E-3,.3552E-4,0
TIANMU-1 19,2023-208A,2026-07-08T23:24:59.585760,15.31910688,.00040182,97.4514,306.3936,223.2431,136.8495,0,U,58660,999,14066,.17235298E-3,.5231E-4,0
