FENGYUN 3D              
1 43010U 17072A   26189.99451072  .00000025  00000+0  33666-4 0  9992
2 43010  99.0140 164.8120 0001847  26.7827 333.3444 14.19743467448081
NOAA 20 (JPSS-1)        
1 43013U 17073A   26189.92256911  .00000032  00000+0  36124-4 0  9994
2 43013  98.7773 129.1924 0001143 129.9157 230.2119 14.19515668447554
GOES 17                 
1 43226U 18022A   26189.83822684 -.00000169  00000+0  00000+0 0  9992
2 43226   0.9892  85.3594 0000592  68.9835 344.7109  1.00271413 30646
SENTINEL-3B             
1 43437U 18039A   26189.78969595  .00000051  00000+0  38919-4 0  9995
2 43437  98.6239 257.0111 0001000 119.7937 240.3343 14.26740836427200
FENGYUN 2H              
1 43491U 18050A   26190.01422147 -.00000116  00000+0  00000+0 0  9991
2 43491   3.0842  78.8189 0002223 130.6757 161.8051  1.00267869 29652
METOP-C                 
1 43689U 18087A   26189.88809749  .00000051  00000+0  43308-4 0  9990
2 43689  98.6633 249.0939 0002213 101.8123 258.3302 14.21517867397911
GEO-KOMPSAT-2A          
1 43823U 18100A   26189.88133226 -.00000330  00000+0  00000+0 0  9994
2 43823   0.0273 144.8791 0002263 315.9195 271.5691  1.00270367 27842
METEOR-M2 2             
1 44387U 19038A   26189.95069159 -.00000049  00000+0 -13299-5 0  9990
2 44387  98.9161 177.5581 0001083  15.5468 344.5743 14.24371366364399
ARKTIKA-M 1             
1 47719U 21016A   26188.42887598 -.00000257  00000+0  00000+0 0  9997
2 47719  63.2524  54.6812 7295086 270.0380  14.5466  2.00614486 39194
FENGYUN 3E              
1 49008U 21062A   26189.97596395 -.00000024  00000+0  94678-5 0  9996
2 49008  98.7504 193.1409 0002483  50.1782 309.9612 14.19906245259673
GOES 18                 
1 51850U 22021A   26189.68625485  .00000111  00000+0  00000+0 0  9997
2 51850   0.0126 261.0292 0000564 278.4655 217.1840  1.00271752  6806
NOAA 21 (JPSS-2)        
1 54234U 22150A   26189.88448287  .00000020  00000+0  29903-4 0  9991
2 54234  98.7061 128.3092 0002666 115.5777 244.5675 14.19540407189623
METEOSAT-12 (MTG-I1)    
1 54743U 22170C   26189.85591778  .00000006  00000+0  00000+0 0  9995
2 54743   0.7182  18.5443 0003904  82.7457 133.4200  1.00266696 13190
TIANMU-1 03             
1 55973U 23039A   26189.90486149  .00011342  00000+0  21944-3 0  9996
2 55973  97.5245   4.7350 0003104  42.6456 317.5034 15.47917430184194
TIANMU-1 04             
1 55974U 23039B   26189.95042926  .00011287  00000+0  21374-3 0  9998
2 55974  97.5178   3.9383 0003615  35.4202 324.7288 15.48536830184219
TIANMU-1 05             
1 55975U 23039C   26189.95133738  .00011610  00000+0  22514-3 0  9998
2 55975  97.5224   4.3906 0003465  62.4491 297.7110 15.47841639184185
TIANMU-1 06             
1 55976U 23039D   26189.95520060  .00011364  00000+0  21594-3 0  9990
2 55976  97.5231   5.0524 0003618  55.1632 304.9958 15.48434977184213
FENGYUN 3G              
1 56232U 23055A   26189.72416449  .00016364  00000+0  25827-3 0  9992
2 56232  49.9917 234.9712 0007191  27.0742 333.0600 15.53588809183354
METEOR-M2 3             
1 57166U 23091A   26189.95003097 -.00000031  00000+0  54268-5 0  9993
2 57166  98.6071 244.4818 0005124 104.2846 255.8903 14.24048564157616
TIANMU-1 07             
1 57399U 23101A   26189.94530023  .00004013  00000+0  14045-3 0  9996
2 57399  97.2584 240.1155 0004085  77.4136 282.7562 15.30066302164978
TIANMU-1 08             
1 57400U 23101B   26189.97728176  .00003997  00000+0  13988-3 0  9995
2 57400  97.2573 239.9142 0005109  62.3660 297.8099 15.30070888164970
TIANMU-1 09             
1 57401U 23101C   26189.96020512  .00004043  00000+0  14128-3 0  9994
2 57401  97.2531 239.3022 0004694  78.7623 281.4145 15.30109814164977
TIANMU-1 10             
1 57402U 23101D   26189.92824370  .00004085  00000+0  14281-3 0  9991
2 57402  97.2610 240.3437 0006072  70.7346 289.4551 15.30082788164962
FENGYUN 3F              
1 57490U 23111A   26189.95936032  .00000005  00000+0  22988-4 0  9993
2 57490  98.6828 259.5616 0001399  79.1372 280.9962 14.19942753151955
ARKTIKA-M 2             
1 58584U 23198A   26189.19640102  .00000204  00000+0  00000+0 0  9996
2 58584  63.2191 152.0158 6908458 267.3598  18.7565  2.00608968 18747
TIANMU-1 11             
1 58645U 23205A   26190.00455227  .00003534  00000+0  13515-3 0  9995
2 58645  97.3447 211.2209 0006810 290.1989  69.8517 15.27222295140855
TIANMU-1 12             
1 58646U 23205B   26189.97626403  .00003496  00000+0  13446-3 0  9996
2 58646  97.3436 210.9425 0005503 263.4297  96.6316 15.27052173140832
TIANMU-1 13             
1 58647U 23205C   26190.00967591  .00003615  00000+0  13896-3 0  9991
2 58647  97.3463 211.2532 0005240 239.2208 120.8515 15.27045019140839
TIANMU-1 14             
1 58648U 23205D   26189.99424620  .00003552  00000+0  13641-3 0  9997
2 58648  97.3399 210.4027 0005940 247.3632 112.6979 15.27089012140830
TIANMU-1 19             
1 58660U 23208A   26189.97568965  .00005231  00000+0  17235-3 0  9992
2 58660  97.4514 306.3936 0004018 223.2431 136.8495 15.31910688140662
